[{"OBJECT_NAME":"STARLINK-31590","OBJECT_ID":"2024-045W","EPOCH":"2025-11-17T20:29:43.885824","MEAN_MOTION":15.27561335,"ECCENTRICITY":0.0001416,"INCLINATION":43.0014,"RA_OF_ASC_NODE":4.4708,"ARG_OF_PERICENTER":272.1339,"MEAN_ANOMALY":87.935,"EPHEMERIS_TYPE":0,"CLASSIFICATION_TYPE":"U","NORAD_CAT_ID":59198,"ELEMENT_SET_NO":999,"REV_AT_EPOCH":9605,"BSTAR":-7.2043e-5,"MEAN_MOTION_DOT":-2.243e-5,"MEAN_MOTION_DDOT":0},{"OBJECT_NAME":"STARLINK-31567","OBJECT_ID":"2024-045X","EPOCH":"2025-11-17T19:36:03.814848","MEAN_MOTION":15.27571382,"ECCENTRICITY":5.13e-5,"INCLINATION":43.0011,"RA_OF_ASC_NODE":4.1907,"ARG_OF_PERICENTER":296.3052,"MEAN_ANOMALY":63.7747,"EPHEMERIS_TYPE":0,"CLASSIFICATION_TYPE":"U","NORAD_CAT_ID":59199,"ELEMENT_SET_NO":999,"REV_AT_EPOCH":9605,"BSTAR":-6.4075e-5,"MEAN_MOTION_DOT":-2.024e-5,"MEAN_MOTION_DDOT":0},{"OBJECT_NAME":"STARLINK-31503","OBJECT_ID":"2024-045Y","EPOCH":"2025-11-17T13:24:58.539168","MEAN_MOTION":15.27597124,"ECCENTRICITY":6.719e-5,"INCLINATION":43.0027,"RA_OF_ASC_NODE":5.6961,"ARG_OF_PERICENTER":253.2839,"MEAN_ANOMALY":106.7939,"EPHEMERIS_TYPE":0,"CLASSIFICATION_TYPE":"U","NORAD_CAT_ID":59200,"ELEMENT_SET_NO":999,"REV_AT_EPOCH":9601,"BSTAR":-4.1783088e-5,"MEAN_MOTION_DOT":-1.412e-5,"MEAN_MOTION_DDOT":0},{"OBJECT_NAME":"STARLINK-31603","OBJECT_ID":"2024-046A","EPOCH":"2025-11-18T04:25:42.746592","MEAN_MOTION":15.30189887,"ECCENTRICITY":0.0001305,"INCLINATION":53.1613,"RA_OF_ASC_NODE":313.5515,"ARG_OF_PERICENTER":91.5289,"MEAN_ANOMALY":268.5861,"EPHEMERIS_TYPE":0,"CLASSIFICATION_TYPE":"U","NORAD_CAT_ID":59201,"ELEMENT_SET_NO":999,"REV_AT_EPOCH":9597,"BSTAR":3.6839e-5,"MEAN_MOTION_DOT":7.32e-6,"MEAN_MOTION_DDOT":0},{"OBJECT_NAME":"STARLINK-31602","OBJECT_ID":"2024-046B","EPOCH":"2025-11-18T03:32:31.312032","MEAN_MOTION":15.30188729,"ECCENTRICITY":0.0001178,"INCLINATION":53.1617,"RA_OF_ASC_NODE":313.3207,"ARG_OF_PERICENTER":91.3385,"MEAN_ANOMALY":268.7751,"EPHEMERIS_TYPE":0,"CLASSIFICATION_TYPE":"U","NORAD_CAT_ID":59202,"ELEMENT_SET_NO":999,"REV_AT_EPOCH":9597,"BSTAR":-1.5433e-5,"MEAN_MOTION_DOT":-8.16e-6,"MEAN_MOTION_DDOT":0},{"OBJECT_NAME":"STARLINK-31577","OBJECT_ID":"2024-046C","EPOCH":"2025-11-18T04:00:03.000096","MEAN_MOTION":15.30193668,"ECCENTRICITY":0.0001409,"INCLINATION":53.1598,"RA_OF_ASC_NODE":312.9823,"ARG_OF_PERICENTER":94.3709,"MEAN_ANOMALY":139.0812,"EPHEMERIS_TYPE":0,"CLASSIFICATION_TYPE":"U","NORAD_CAT_ID":59203,"ELEMENT_SET_NO":999,"REV_AT_EPOCH":585,"BSTAR":-4.8065e-5,"MEAN_MOTION_DOT":-1.782e-5,"MEAN_MOTION_DDOT":0},{"OBJECT_NAME":"STARLINK-31522","OBJECT_ID":"2024-046D","EPOCH":"2025-11-18T04:22:39.810144","MEAN_MOTION":15.30190097,"ECCENTRICITY":0.0001398,"INCLINATION":53.1612,"RA_OF_ASC_NODE":313.539,"ARG_OF_PERICENTER":97.9692,"MEAN_ANOMALY":262.1467,"EPHEMERIS_TYPE":0,"CLASSIFICATION_TYPE":"U","NORAD_CAT_ID":59204,"ELEMENT_SET_NO":999,"REV_AT_EPOCH":9597,"BSTAR":1.9275e-5,"MEAN_MOTION_DOT":2.11e-6,"MEAN_MOTION_DDOT":0},{"OBJECT_NAME":"STARLINK-31586","OBJECT_ID":"2024-046E","EPOCH":"2025-11-18T03:46:13.287072","MEAN_MOTION":15.30173657,"ECCENTRICITY":9.86e-5,"INCLINATION":53.1603,"RA_OF_ASC_NODE":313.382,"ARG_OF_PERICENTER":92.7781,"MEAN_ANOMALY":267.3333,"EPHEMERIS_TYPE":0,"CLASSIFICATION_TYPE":"U","NORAD_CAT_ID":59205,"ELEMENT_SET_NO":999,"REV_AT_EPOCH":9597,"BSTAR":-7.5393e-5,"MEAN_MOTION_DOT":-2.589e-5,"MEAN_MOTION_DDOT":0},{"OBJECT_NAME":"STARLINK-31247","OBJECT_ID":"2024-046F","EPOCH":"2025-11-18T04:05:56.850432","MEAN_MOTION":15.30186257,"ECCENTRICITY":0.0001487,"INCLINATION":53.1601,"RA_OF_ASC_NODE":313.4631,"ARG_OF_PERICENTER":88.9868,"MEAN_ANOMALY":271.1303,"EPHEMERIS_TYPE":0,"CLASSIFICATION_TYPE":"U","NORAD_CAT_ID":59206,"ELEMENT_SET_NO":999,"REV_AT_EPOCH":9597,"BSTAR":9.1608e-5,"MEAN_MOTION_DOT":2.354e-5,"MEAN_MOTION_DDOT":0},{"OBJECT_NAME":"STARLINK-31591","OBJECT_ID":"2024-046G","EPOCH":"2025-11-18T03:35:33.515808","MEAN_MOTION":15.30194713,"ECCENTRICITY":0.0001396,"INCLINATION":53.1614,"RA_OF_ASC_NODE":313.3358,"ARG_OF_PERICENTER":99.9139,"MEAN_ANOMALY":260.2019,"EPHEMERIS_TYPE":0,"CLASSIFICATION_TYPE":"U","NORAD_CAT_ID":59207,"ELEMENT_SET_NO":999,"REV_AT_EPOCH":9597,"BSTAR":-7.9811e-5,"MEAN_MOTION_DOT":-2.722e-5,"MEAN_MOTION_DDOT":0},{"OBJECT_NAME":"STARLINK-31576","OBJECT_ID":"2024-046H","EPOCH":"2025-11-18T03:23:23.980128","MEAN_MOTION":15.30187234,"ECCENTRICITY":0.0001367,"INCLINATION":53.1609,"RA_OF_ASC_NODE":313.2829,"ARG_OF_PERICENTER":99.2347,"MEAN_ANOMALY":260.8808,"EPHEMERIS_TYPE":0,"CLASSIFICATION_TYPE":"U","NORAD_CAT_ID":59208,"ELEMENT_SET_NO":999,"REV_AT_EPOCH":9597,"BSTAR":-5.1536e-5,"MEAN_MOTION_DOT":-1.885e-5,"MEAN_MOTION_DDOT":0},{"OBJECT_NAME":"STARLINK-31601","OBJECT_ID":"2024-046J","EPOCH":"2025-11-18T03:08:12.213024","MEAN_MOTION":15.30192512,"ECCENTRICITY":0.0001251,"INCLINATION":53.1614,"RA_OF_ASC_NODE":313.2129,"ARG_OF_PERICENTER":82.1461,"MEAN_ANOMALY":277.9682,"EPHEMERIS_TYPE":0,"CLASSIFICATION_TYPE":"U","NORAD_CAT_ID":59209,"ELEMENT_SET_NO":999,"REV_AT_EPOCH":9597,"BSTAR":7.4878e-6,"MEAN_MOTION_DOT":-1.37e-6,"MEAN_MOTION_DDOT":0},{"OBJECT_NAME":"STARLINK-31520","OBJECT_ID":"2024-046K","EPOCH":"2025-11-18T04:01:23.746944","MEAN_MOTION":15.30182823,"ECCENTRICITY":0.0001614,"INCLINATION":53.162,"RA_OF_ASC_NODE":313.4429,"ARG_OF_PERICENTER":103.0039,"MEAN_ANOMALY":257.1142,"EPHEMERIS_TYPE":0,"CLASSIFICATION_TYPE":"U","NORAD_CAT_ID":59210,"ELEMENT_SET_NO":999,"REV_AT_EPOCH":9597,"BSTAR":-1.3075e-5,"MEAN_MOTION_DOT":-7.46e-6,"MEAN_MOTION_DDOT":0},{"OBJECT_NAME":"STARLINK-31496","OBJECT_ID":"2024-046L","EPOCH":"2025-11-18T04:02:06.620352","MEAN_MOTION":15.30189178,"ECCENTRICITY":0.0001257,"INCLINATION":53.159,"RA_OF_ASC_NODE":300.6727,"ARG_OF_PERICENTER":89.5105,"MEAN_ANOMALY":270.604,"EPHEMERIS_TYPE":0,"CLASSIFICATION_TYPE":"U","NORAD_CAT_ID":59211,"ELEMENT_SET_NO":999,"REV_AT_EPOCH":9614,"BSTAR":0.00011105,"MEAN_MOTION_DOT":2.93e-5,"MEAN_MOTION_DDOT":0},{"OBJECT_NAME":"STARLINK-31492","OBJECT_ID":"2024-046M","EPOCH":"2025-11-18T04:28:43.979232","MEAN_MOTION":15.30191399,"ECCENTRICITY":0.0001454,"INCLINATION":53.1606,"RA_OF_ASC_NODE":313.5562,"ARG_OF_PERICENTER":118.6967,"MEAN_ANOMALY":241.418,"EPHEMERIS_TYPE":0,"CLASSIFICATION_TYPE":"U","NORAD_CAT_ID":59212,"ELEMENT_SET_NO":999,"REV_AT_EPOCH":9596,"BSTAR":-0.00013286,"MEAN_MOTION_DOT":-4.291e-5,"MEAN_MOTION_DDOT":0},{"OBJECT_NAME":"STARLINK-31517","OBJECT_ID":"2024-046N","EPOCH":"2025-11-18T03:37:05.009952","MEAN_MOTION":15.30189147,"ECCENTRICITY":0.0001364,"INCLINATION":53.1589,"RA_OF_ASC_NODE":313.3649,"ARG_OF_PERICENTER":82.3837,"MEAN_ANOMALY":277.7318,"EPHEMERIS_TYPE":0,"CLASSIFICATION_TYPE":"U","NORAD_CAT_ID":59213,"ELEMENT_SET_NO":999,"REV_AT_EPOCH":9596,"BSTAR":-1.0156e-5,"MEAN_MOTION_DOT":-6.6e-6,"MEAN_MOTION_DDOT":0},{"OBJECT_NAME":"STARLINK-31604","OBJECT_ID":"2024-046P","EPOCH":"2025-11-18T03:41:38.084928","MEAN_MOTION":15.30185554,"ECCENTRICITY":0.0001689,"INCLINATION":53.1609,"RA_OF_ASC_NODE":313.357,"ARG_OF_PERICENTER":84.3291,"MEAN_ANOMALY":275.7902,"EPHEMERIS_TYPE":0,"CLASSIFICATION_TYPE":"U","NORAD_CAT_ID":59214,"ELEMENT_SET_NO":999,"REV_AT_EPOCH":9596,"BSTAR":-0.00012795,"MEAN_MOTION_DOT":-4.145e-5,"MEAN_MOTION_DDOT":0}]
