STARLINK-31590          
1 59198U 24045W   25321.85398016 -.00002243  00000+0 -72043-4 0  9992
2 59198  43.0014   4.4708 0001416 272.1339  87.9350 15.27561335 96058
STARLINK-31567          
1 59199U 24045X   25321.81671082 -.00002024  00000+0 -64075-4 0  9999
2 59199  43.0011   4.1907 0000513 296.3052  63.7747 15.27571382 96056
STARLINK-31503          
1 59200U 24045Y   25321.55901087 -.00001412  00000+0 -41783-4 0  9995
2 59200  43.0027   5.6961 0000671 253.2839 106.7939 15.27597124 96011
STARLINK-31603          
1 59201U 24046A   25322.18452253  .00000732  00000+0  36839-4 0  9991
2 59201  53.1613 313.5515 0001305  91.5289 268.5861 15.30189887 95970
STARLINK-31602          
1 59202U 24046B   25322.14758463 -.00000816  00000+0 -15433-4 0  9992
2 59202  53.1617 313.3207 0001178  91.3385 268.7751 15.30188729 95978
STARLINK-31577          
1 59203U 24046C   25322.16670139 -.00001782  00000+0 -48065-4 0  9998
2 59203  53.1598 312.9823 0001409  94.3709 139.0812 15.30193668  5850
STARLINK-31522          
1 59204U 24046D   25322.18240521  .00000211  00000+0  19275-4 0  9994
2 59204  53.1612 313.5390 0001398  97.9692 262.1467 15.30190097 95970
STARLINK-31586          
1 59205U 24046E   25322.15709823 -.00002589  00000+0 -75393-4 0  9992
2 59205  53.1603 313.3820 0000986  92.7781 267.3333 15.30173657 95973
STARLINK-31247          
1 59206U 24046F   25322.17079688  .00002354  00000+0  91608-4 0  9999
2 59206  53.1601 313.4631 0001487  88.9868 271.1303 15.30186257 95973
STARLINK-31591          
1 59207U 24046G   25322.14969347 -.00002722  00000+0 -79811-4 0  9990
2 59207  53.1614 313.3358 0001396  99.9139 260.2019 15.30194713 95974
STARLINK-31576          
1 59208U 24046H   25322.14124977 -.00001885  00000+0 -51536-4 0  9996
2 59208  53.1609 313.2829 0001367  99.2347 260.8808 15.30187234 95975
STARLINK-31601          
1 59209U 24046J   25322.13069691 -.00000137  00000+0  74878-5 0  9990
2 59209  53.1614 313.2129 0001251  82.1461 277.9682 15.30192512 95979
STARLINK-31520          
1 59210U 24046K   25322.16763596 -.00000746  00000+0 -13075-4 0  9998
2 59210  53.1620 313.4429 0001614 103.0039 257.1142 15.30182823 95975
STARLINK-31496          
1 59211U 24046L   25322.16813218  .00002930  00000+0  11105-3 0  9992
2 59211  53.1590 300.6727 0001257  89.5105 270.6040 15.30189178 96143
STARLINK-31492          
1 59212U 24046M   25322.18662013 -.00004291  00000+0 -13286-3 0  9996
2 59212  53.1606 313.5562 0001454 118.6967 241.4180 15.30191399 95969
STARLINK-31517          
1 59213U 24046N   25322.15075243 -.00000660  00000+0 -10156-4 0  9997
2 59213  53.1589 313.3649 0001364  82.3837 277.7318 15.30189147 95960
STARLINK-31604          
1 59214U 24046P   25322.15391302 -.00004145  00000+0 -12795-3 0  9997
2 59214  53.1609 313.3570 0001689  84.3291 275.7902 15.30185554 95968
